CCSDS_OMM_VERS = 2.0
CREATION_DATE  = 
ORIGINATOR     = 

OBJECT_NAME    = GUOWANG GROUP 20 OBJECT J
OBJECT_ID      = 2026-047J
CENTER_NAME    = EARTH
REF_FRAME      = TEME
TIME_SYSTEM    = UTC
MEAN_ELEMENT_THEORY = SGP/SGP4

EPOCH          = 2026-04-05T15:57:26.248896
MEAN_MOTION    = 13.82310019
ECCENTRICITY   = .000114
INCLINATION    = 50.0046
RA_OF_ASC_NODE = 321.4594
ARG_OF_PERICENTER = 155.5004
MEAN_ANOMALY   = 204.5945

EPHEMERIS_TYPE = 0
CLASSIFICATION_TYPE = U
NORAD_CAT_ID   = 68137
ELEMENT_SET_NO = 999
REV_AT_EPOCH   = 334
BSTAR          = .22224E-4
MEAN_MOTION_DOT = -.119E-5
MEAN_MOTION_DDOT = 0

CCSDS_OMM_VERS = 2.0
CREATION_DATE  = 
ORIGINATOR     = 

OBJECT_NAME    = CZ-8A R/B
OBJECT_ID      = 2026-047K
CENTER_NAME    = EARTH
REF_FRAME      = TEME
TIME_SYSTEM    = UTC
MEAN_ELEMENT_THEORY = SGP/SGP4

EPOCH          = 2026-04-05T15:31:30.468288
MEAN_MOTION    = 14.12233895
ECCENTRICITY   = .00447705
INCLINATION    = 49.9532
RA_OF_ASC_NODE = 319.2068
ARG_OF_PERICENTER = 230.8097
MEAN_ANOMALY   = 128.8830

EPHEMERIS_TYPE = 0
CLASSIFICATION_TYPE = U
NORAD_CAT_ID   = 68138
ELEMENT_SET_NO = 999
REV_AT_EPOCH   = 336
BSTAR          = .14141141E-3
MEAN_MOTION_DOT = .11E-5
MEAN_MOTION_DDOT = 0

CCSDS_OMM_VERS = 2.0
CREATION_DATE  = 
ORIGINATOR     = 

OBJECT_NAME    = SHIYAN-30 03
OBJECT_ID      = 2026-048A
CENTER_NAME    = EARTH
REF_FRAME      = TEME
TIME_SYSTEM    = UTC
MEAN_ELEMENT_THEORY = SGP/SGP4

EPOCH          = 2026-04-05T17:52:16.959936
MEAN_MOTION    = 14.91785337
ECCENTRICITY   = .0002412
INCLINATION    = 35.0013
RA_OF_ASC_NODE = 341.9338
ARG_OF_PERICENTER = 80.8095
MEAN_ANOMALY   = 279.2883

EPHEMERIS_TYPE = 0
CLASSIFICATION_TYPE = U
NORAD_CAT_ID   = 68139
ELEMENT_SET_NO = 999
REV_AT_EPOCH   = 354
BSTAR          = .33668E-3
MEAN_MOTION_DOT = .3433E-4
MEAN_MOTION_DDOT = 0

CCSDS_OMM_VERS = 2.0
CREATION_DATE  = 
ORIGINATOR     = 

OBJECT_NAME    = SHIYAN-30 04
OBJECT_ID      = 2026-048B
CENTER_NAME    = EARTH
REF_FRAME      = TEME
TIME_SYSTEM    = UTC
MEAN_ELEMENT_THEORY = SGP/SGP4

EPOCH          = 2026-04-05T17:53:17.093472
MEAN_MOTION    = 14.91782763
ECCENTRICITY   = .0000941
INCLINATION    = 34.9928
RA_OF_ASC_NODE = 341.9305
ARG_OF_PERICENTER = 96.1078
MEAN_ANOMALY   = 263.9734

EPHEMERIS_TYPE = 0
CLASSIFICATION_TYPE = U
NORAD_CAT_ID   = 68140
ELEMENT_SET_NO = 999
REV_AT_EPOCH   = 354
BSTAR          = .32622E-3
MEAN_MOTION_DOT = .3325E-4
MEAN_MOTION_DDOT = 0

CCSDS_OMM_VERS = 2.0
CREATION_DATE  = 
ORIGINATOR     = 

OBJECT_NAME    = CZ-2D R/B
OBJECT_ID      = 2026-048C
CENTER_NAME    = EARTH
REF_FRAME      = TEME
TIME_SYSTEM    = UTC
MEAN_ELEMENT_THEORY = SGP/SGP4

EPOCH          = 2026-04-05T14:52:44.319360
MEAN_MOTION    = 14.95600262
ECCENTRICITY   = .00160034
INCLINATION    = 35.1309
RA_OF_ASC_NODE = 342.2617
ARG_OF_PERICENTER = 202.5313
MEAN_ANOMALY   = 157.4693

EPHEMERIS_TYPE = 0
CLASSIFICATION_TYPE = U
NORAD_CAT_ID   = 68141
ELEMENT_SET_NO = 999
REV_AT_EPOCH   = 353
BSTAR          = .20728131E-3
MEAN_MOTION_DOT = .2321E-4
MEAN_MOTION_DDOT = 0

CCSDS_OMM_VERS = 2.0
CREATION_DATE  = 
ORIGINATOR     = 

OBJECT_NAME    = STARLINK-36604
OBJECT_ID      = 2026-049A
CENTER_NAME    = EARTH
REF_FRAME      = TEME
TIME_SYSTEM    = UTC
MEAN_ELEMENT_THEORY = SGP/SGP4

EPOCH          = 2026-04-05T14:07:37.411680
MEAN_MOTION    = 15.75269406
ECCENTRICITY   = .00012197
INCLINATION    = 97.2844
RA_OF_ASC_NODE = 116.1767
ARG_OF_PERICENTER = 80.3916
MEAN_ANOMALY   = 279.7487

EPHEMERIS_TYPE = 0
CLASSIFICATION_TYPE = U
NORAD_CAT_ID   = 68142
ELEMENT_SET_NO = 999
REV_AT_EPOCH   = 365
BSTAR          = .81812398E-3
MEAN_MOTION_DOT = .124112E-2
MEAN_MOTION_DDOT = 0

CCSDS_OMM_VERS = 2.0
CREATION_DATE  = 
ORIGINATOR     = 

OBJECT_NAME    = STARLINK-36995
OBJECT_ID      = 2026-049B
CENTER_NAME    = EARTH
REF_FRAME      = TEME
TIME_SYSTEM    = UTC
MEAN_ELEMENT_THEORY = SGP/SGP4

EPOCH          = 2026-04-05T14:01:00.488352
MEAN_MOTION    = 15.75233091
ECCENTRICITY   = .00016181
INCLINATION    = 97.2846
RA_OF_ASC_NODE = 116.1826
ARG_OF_PERICENTER = 86.8522
MEAN_ANOMALY   = 273.2928

EPHEMERIS_TYPE = 0
CLASSIFICATION_TYPE = U
NORAD_CAT_ID   = 68143
ELEMENT_SET_NO = 999
REV_AT_EPOCH   = 365
BSTAR          = -.2650609E-3
MEAN_MOTION_DOT = -.39557E-3
MEAN_MOTION_DDOT = 0

CCSDS_OMM_VERS = 2.0
CREATION_DATE  = 
ORIGINATOR     = 

OBJECT_NAME    = STARLINK-37020
OBJECT_ID      = 2026-049C
CENTER_NAME    = EARTH
REF_FRAME      = TEME
TIME_SYSTEM    = UTC
MEAN_ELEMENT_THEORY = SGP/SGP4

EPOCH          = 2026-04-05T14:00:03.000384
MEAN_MOTION    = 15.75230467
ECCENTRICITY   = .00012149
INCLINATION    = 97.2846
RA_OF_ASC_NODE = 116.2061
ARG_OF_PERICENTER = 99.3042
MEAN_ANOMALY   = 311.0070

EPHEMERIS_TYPE = 0
CLASSIFICATION_TYPE = U
NORAD_CAT_ID   = 68144
ELEMENT_SET_NO = 999
REV_AT_EPOCH   = 494
BSTAR          = -.36464254E-3
MEAN_MOTION_DOT = -.54268E-3
MEAN_MOTION_DDOT = 0

CCSDS_OMM_VERS = 2.0
CREATION_DATE  = 
ORIGINATOR     = 

OBJECT_NAME    = STARLINK-36244
OBJECT_ID      = 2026-049D
CENTER_NAME    = EARTH
REF_FRAME      = TEME
TIME_SYSTEM    = UTC
MEAN_ELEMENT_THEORY = SGP/SGP4

EPOCH          = 2026-04-05T14:20:50.135136
MEAN_MOTION    = 15.75274850
ECCENTRICITY   = .00015681
INCLINATION    = 97.2848
RA_OF_ASC_NODE = 116.1630
ARG_OF_PERICENTER = 112.6608
MEAN_ANOMALY   = 247.4823

EPHEMERIS_TYPE = 0
CLASSIFICATION_TYPE = U
NORAD_CAT_ID   = 68145
ELEMENT_SET_NO = 999
REV_AT_EPOCH   = 365
BSTAR          = .92661723E-3
MEAN_MOTION_DOT = .140901E-2
MEAN_MOTION_DDOT = 0

CCSDS_OMM_VERS = 2.0
CREATION_DATE  = 
ORIGINATOR     = 

OBJECT_NAME    = STARLINK-36980
OBJECT_ID      = 2026-049E
CENTER_NAME    = EARTH
REF_FRAME      = TEME
TIME_SYSTEM    = UTC
MEAN_ELEMENT_THEORY = SGP/SGP4

EPOCH          = 2026-04-05T12:03:50.268960
MEAN_MOTION    = 15.80906435
ECCENTRICITY   = .00012787
INCLINATION    = 97.2845
RA_OF_ASC_NODE = 116.1410
ARG_OF_PERICENTER = 79.6946
MEAN_ANOMALY   = 280.4466

EPHEMERIS_TYPE = 0
CLASSIFICATION_TYPE = U
NORAD_CAT_ID   = 68146
ELEMENT_SET_NO = 999
REV_AT_EPOCH   = 364
BSTAR          = .71430209E-3
MEAN_MOTION_DOT = .139463E-2
MEAN_MOTION_DDOT = 0

CCSDS_OMM_VERS = 2.0
CREATION_DATE  = 
ORIGINATOR     = 

OBJECT_NAME    = STARLINK-37055
OBJECT_ID      = 2026-049F
CENTER_NAME    = EARTH
REF_FRAME      = TEME
TIME_SYSTEM    = UTC
MEAN_ELEMENT_THEORY = SGP/SGP4

EPOCH          = 2026-04-05T13:37:09.221376
MEAN_MOTION    = 15.80920600
ECCENTRICITY   = .00011462
INCLINATION    = 97.2845
RA_OF_ASC_NODE = 116.2057
ARG_OF_PERICENTER = 108.1130
MEAN_ANOMALY   = 252.0263

EPHEMERIS_TYPE = 0
CLASSIFICATION_TYPE = U
NORAD_CAT_ID   = 68147
ELEMENT_SET_NO = 999
REV_AT_EPOCH   = 365
BSTAR          = .91947963E-3
MEAN_MOTION_DOT = .180533E-2
MEAN_MOTION_DDOT = 0

CCSDS_OMM_VERS = 2.0
CREATION_DATE  = 
ORIGINATOR     = 

OBJECT_NAME    = STARLINK-36981
OBJECT_ID      = 2026-049G
CENTER_NAME    = EARTH
REF_FRAME      = TEME
TIME_SYSTEM    = UTC
MEAN_ELEMENT_THEORY = SGP/SGP4

EPOCH          = 2026-04-05T13:32:49.366464
MEAN_MOTION    = 15.80935628
ECCENTRICITY   = .0001173
INCLINATION    = 97.2846
RA_OF_ASC_NODE = 116.2099
ARG_OF_PERICENTER = 109.5727
MEAN_ANOMALY   = 250.5668

EPHEMERIS_TYPE = 0
CLASSIFICATION_TYPE = U
NORAD_CAT_ID   = 68148
ELEMENT_SET_NO = 999
REV_AT_EPOCH   = 365
BSTAR          = .11035929E-2
MEAN_MOTION_DOT = .217796E-2
MEAN_MOTION_DDOT = 0

