{"fetched_at":"2026-04-06T02:18:24Z","count":16827,"tles":[{"name":"STARLINK-36980","line1":"1 68146U 26049E   26095.50266515  .00139463  00000+0  71430-3 0  9991","line2":"2 68146  97.2845 116.1410 0001278  79.6946 280.4466 15.80906435  3649","category":"Starlink"},{"name":"GUOWANG GROUP 20 OBJECT*","line1":"1 68137U 26047J   26095.66488714 -.00000119  00000+0  22224-4 0  9997","line2":"2 68137  50.0046 321.4594 0001140 155.5004 204.5945 13.82310019  3343","category":"Other"},{"name":"CZ-8A R/B","line1":"1 68138U 26047K   26095.64688042  .00000110  00000+0  14141-3 0  9990","line2":"2 68138  49.9532 319.2068 0044770 230.8097 128.8830 14.12233895  3360","category":"Other"},{"name":"SHIYAN-30 03","line1":"1 68139U 26048A   26095.74464074  .00003433  00000+0  33668-3 0  9996","line2":"2 68139  35.0013 341.9338 0002412  80.8095 279.2883 14.91785337  3540","category":"Other"},{"name":"SHIYAN-30 04","line1":"1 68140U 26048B   26095.74533673  .00003325  00000+0  32622-3 0  9999","line2":"2 68140  34.9928 341.9305 0000941  96.1078 263.9734 14.91782763  3540","category":"Other"},{"name":"CZ-2D R/B","line1":"1 68141U 26048C   26095.61995740  .00002321  00000+0  20728-3 0  9992","line2":"2 68141  35.1309 342.2617 0016003 202.5313 157.4693 14.95600262  3535","category":"Other"},{"name":"STARLINK-36604","line1":"1 68142U 26049A   26095.58862745  .00124112  00000+0  81812-3 0  9992","line2":"2 68142  97.2844 116.1767 0001219  80.3916 279.7487 15.75269406  3659","category":"Starlink"},{"name":"STARLINK-36995","line1":"1 68143U 26049B   26095.58403343 -.00039557  00000+0 -26506-3 0  9997","line2":"2 68143  97.2846 116.1826 0001618  86.8522 273.2928 15.75233091  3655","category":"Starlink"},{"name":"STARLINK-37020","line1":"1 68144U 26049C   26095.58336806 -.00054268  00000+0 -36464-3 0  9997","line2":"2 68144  97.2846 116.2061 0001214  99.3042 311.0070 15.75230467  4942","category":"Starlink"},{"name":"STARLINK-36244","line1":"1 68145U 26049D   26095.59780249  .00140901  00000+0  92662-3 0  9993","line2":"2 68145  97.2848 116.1630 0001568 112.6608 247.4823 15.75274850  3654","category":"Starlink"},{"name":"STARLINK-37055","line1":"1 68147U 26049F   26095.56746784  .00180533  00000+0  91948-3 0  9999","line2":"2 68147  97.2845 116.2057 0001146 108.1130 252.0263 15.80920600  3656","category":"Starlink"},{"name":"STARLINK-36981","line1":"1 68148U 26049G   26095.56446026  .00217796  00000+0  11036-2 0  9997","line2":"2 68148  97.2846 116.2099 0001173 109.5727 250.5668 15.80935628  3659","category":"Starlink"}]}